ONEWEB-0080             
1 45426U 20020C   24157.74384085 -.00000392  00000+0 -11409-2 0  9995
2 45426  87.8963 168.5948 0002476  87.9784 272.1627 13.11415031205528
ONEWEB-0090             
1 45427U 20020D   24157.76079592 -.00000378  00000+0 -11035-2 0  9991
2 45427  87.8968 168.5741 0002008  89.4181 270.7177 13.11417147205494
ONEWEB-0061             
1 45428U 20020E   24158.09821289  .00000620  00000+0  17146-2 0  9994
2 45428  87.8962 168.5058 0002122  90.5024 269.6347 13.11415452205499
ONEWEB-0081             
1 45429U 20020F   24157.77437112  .00000200  00000+0  52848-3 0  9990
2 45429  87.8964 168.5875 0002177  96.4803 263.6573 13.11417640205563
ONEWEB-0069             
1 45430U 20020G   24157.76420271 -.00000257  00000+0 -75975-3 0  9999
2 45430  87.8966 168.5781 0002133  88.1909 271.9463 13.11419326205495
ONEWEB-0031             
1 45431U 20020H   24158.49835165  .00003649  00000+0  10258-1 0  9990
2 45431  87.8974 168.4409 0002029  88.3185 271.8175 13.11410087205576
ONEWEB-0027             
1 45432U 20020J   24157.94158684  .00000019  00000+0  14844-4 0  9990
2 45432  87.9158 153.4060 0001835  77.1575 282.9761 13.17648130208746
ONEWEB-0064             
1 45433U 20020K   24157.96256412  .00000003  00000+0 -28635-4 0  9998
2 45433  87.8964 168.5559 0002144  82.2520 277.8851 13.11413958205531
